{
  "type": "FeatureCollection",
  "features": [
    {
      "type": "Feature",
      "properties": {
        "norad_id": 39773,
        "name": "EUTELSAT 3B",
        "group": "eutelsat",
        "lat": -0.008165057311361447,
        "lon": -24.000974123754066,
        "alt_km": 35792.206709962404,
        "timestamp": "2025-12-09T16:56:36.251699+00:00",
        "meta_object_name": "EUTELSAT 3B",
        "meta_object_id": "2014-030A",
        "meta_epoch": "2025-12-09T06:50:38.879808",
        "meta_mean_motion": 1.00271374,
        "meta_eccentricity": 0.0004754,
        "meta_inclination": 0.0634,
        "meta_ra_of_asc_node": 341.5597,
        "meta_arg_of_pericenter": 246.7119,
        "meta_mean_anomaly": 315.7755,
        "meta_ephemeris_type": 0,
        "meta_classification_type": "U",
        "meta_norad_cat_id": 39773,
        "meta_element_set_no": 999,
        "meta_rev_at_epoch": 4216,
        "meta_bstar": 0,
        "meta_mean_motion_dot": 2.2e-07,
        "meta_mean_motion_ddot": 0,
        "tle_line1": "1 39773U 14030A   25343.28517222  .00000022  00000+0  00000+0 0  9995",
        "tle_line2": "2 39773   0.0634 341.5597 0004754 246.7119 315.7755  1.00271374 42169"
      },
      "geometry": {
        "type": "Point",
        "coordinates": [
          -24.000974123754066,
          -0.008165057311361447
        ]
      }
    },
    {
      "type": "Feature",
      "properties": {
        "norad_id": 40425,
        "name": "EUTELSAT 115 WEST B",
        "group": "eutelsat",
        "lat": 0.009762524442963006,
        "lon": -142.05936859457603,
        "alt_km": 35788.020640634655,
        "timestamp": "2025-12-09T16:56:36.251711+00:00",
        "meta_object_name": "EUTELSAT 115 WEST B",
        "meta_object_id": "2015-010B",
        "meta_epoch": "2025-12-09T10:03:18.436896",
        "meta_mean_motion": 1.00267856,
        "meta_eccentricity": 2.83e-05,
        "meta_inclination": 0.0086,
        "meta_ra_of_asc_node": 153.759,
        "meta_arg_of_pericenter": 289.3308,
        "meta_mean_anomaly": 31.2487,
        "meta_ephemeris_type": 0,
        "meta_classification_type": "U",
        "meta_norad_cat_id": 40425,
        "meta_element_set_no": 999,
        "meta_rev_at_epoch": 3949,
        "meta_bstar": 0,
        "meta_mean_motion_dot": -2.2e-07,
        "meta_mean_motion_ddot": 0,
        "tle_line1": "1 40425U 15010B   25343.41896339 -.00000022  00000+0  00000+0 0  9995",
        "tle_line2": "2 40425   0.0086 153.7590 0000283 289.3308  31.2487  1.00267856 39492"
      },
      "geometry": {
        "type": "Point",
        "coordinates": [
          -142.05936859457603,
          0.009762524442963006
        ]
      }
    },
    {
      "type": "Feature",
      "properties": {
        "norad_id": 40875,
        "name": "EUTELSAT 8 WEST B",
        "group": "eutelsat",
        "lat": -0.04474912305342243,
        "lon": -35.10105372263327,
        "alt_km": 35778.80080428027,
        "timestamp": "2025-12-09T16:56:36.251723+00:00",
        "meta_object_name": "EUTELSAT 8 WEST B",
        "meta_object_id": "2015-039B",
        "meta_epoch": "2025-12-09T10:06:42.575040",
        "meta_mean_motion": 1.00271486,
        "meta_eccentricity": 0.0004157,
        "meta_inclination": 0.0646,
        "meta_ra_of_asc_node": 0.7688,
        "meta_arg_of_pericenter": 258.855,
        "meta_mean_anomaly": 322.481,
        "meta_ephemeris_type": 0,
        "meta_classification_type": "U",
        "meta_norad_cat_id": 40875,
        "meta_element_set_no": 999,
        "meta_rev_at_epoch": 3775,
        "meta_bstar": 0,
        "meta_mean_motion_dot": -6.3e-07,
        "meta_mean_motion_ddot": 0,
        "tle_line1": "1 40875U 15039B   25343.42132610 -.00000063  00000+0  00000+0 0  9996",
        "tle_line2": "2 40875   0.0646   0.7688 0004157 258.8550 322.4810  1.00271486 37752"
      },
      "geometry": {
        "type": "Point",
        "coordinates": [
          -35.10105372263327,
          -0.04474912305342243
        ]
      }
    },
    {
      "type": "Feature",
      "properties": {
        "norad_id": 41310,
        "name": "EUTELSAT 9B",
        "group": "eutelsat",
        "lat": -0.03364428764482486,
        "lon": -18.091519638527668,
        "alt_km": 35781.3217891752,
        "timestamp": "2025-12-09T16:56:36.251736+00:00",
        "meta_object_name": "EUTELSAT 9B",
        "meta_object_id": "2016-005A",
        "meta_epoch": "2025-12-09T06:50:38.879808",
        "meta_mean_motion": 1.00272177,
        "meta_eccentricity": 0.000488,
        "meta_inclination": 0.0363,
        "meta_ra_of_asc_node": 53.41,
        "meta_arg_of_pericenter": 211.4344,
        "meta_mean_anomaly": 285.108,
        "meta_ephemeris_type": 0,
        "meta_classification_type": "U",
        "meta_norad_cat_id": 41310,
        "meta_element_set_no": 999,
        "meta_rev_at_epoch": 3621,
        "meta_bstar": 0,
        "meta_mean_motion_dot": 6.4e-07,
        "meta_mean_motion_ddot": 0,
        "tle_line1": "1 41310U 16005A   25343.28517222  .00000064  00000+0  00000+0 0  9995",
        "tle_line2": "2 41310   0.0363  53.4100 0004880 211.4344 285.1080  1.00272177 36218"
      },
      "geometry": {
        "type": "Point",
        "coordinates": [
          -18.091519638527668,
          -0.03364428764482486
        ]
      }
    },
    {
      "type": "Feature",
      "properties": {
        "norad_id": 41382,
        "name": "EUTELSAT 65 WEST A",
        "group": "eutelsat",
        "lat": -0.06897929490984524,
        "lon": -92.3638138624512,
        "alt_km": 35774.65156826167,
        "timestamp": "2025-12-09T16:56:36.251748+00:00",
        "meta_object_name": "EUTELSAT 65 WEST A",
        "meta_object_id": "2016-014A",
        "meta_epoch": "2025-12-09T12:38:04.428096",
        "meta_mean_motion": 1.0027273,
        "meta_eccentricity": 0.0002648,
        "meta_inclination": 0.0502,
        "meta_ra_of_asc_node": 5.1997,
        "meta_arg_of_pericenter": 259.4638,
        "meta_mean_anomaly": 298.1642,
        "meta_ephemeris_type": 0,
        "meta_classification_type": "U",
        "meta_norad_cat_id": 41382,
        "meta_element_set_no": 999,
        "meta_rev_at_epoch": 3563,
        "meta_bstar": 0,
        "meta_mean_motion_dot": -2.74e-06,
        "meta_mean_motion_ddot": 0,
        "tle_line1": "1 41382U 16014A   25343.52644014 -.00000274  00000+0  00000+0 0  9995",
        "tle_line2": "2 41382   0.0502   5.1997 0002648 259.4638 298.1642  1.00272730 35636"
      },
      "geometry": {
        "type": "Point",
        "coordinates": [
          -92.3638138624512,
          -0.06897929490984524
        ]
      }
    },
    {
      "type": "Feature",
      "properties": {
        "norad_id": 41589,
        "name": "EUTELSAT 117 WEST B",
        "group": "eutelsat",
        "lat": 0.007341034376604319,
        "lon": -144.1467513586917,
        "alt_km": 35786.111413056366,
        "timestamp": "2025-12-09T16:56:36.251759+00:00",
        "meta_object_name": "EUTELSAT 117 WEST B",
        "meta_object_id": "2016-038B",
        "meta_epoch": "2025-12-09T11:12:09.715104",
        "meta_mean_motion": 1.00274699,
        "meta_eccentricity": 2.38e-05,
        "meta_inclination": 0.0078,
        "meta_ra_of_asc_node": 125.2291,
        "meta_arg_of_pericenter": 302.5176,
        "meta_mean_anomaly": 61.7595,
        "meta_ephemeris_type": 0,
        "meta_classification_type": "U",
        "meta_norad_cat_id": 41589,
        "meta_element_set_no": 999,
        "meta_rev_at_epoch": 3476,
        "meta_bstar": 0,
        "meta_mean_motion_dot": -1e-07,
        "meta_mean_motion_ddot": 0,
        "tle_line1": "1 41589U 16038B   25343.46677911 -.00000010  00000+0  00000+0 0  9993",
        "tle_line2": "2 41589   0.0078 125.2291 0000238 302.5176  61.7595  1.00274699 34764"
      },
      "geometry": {
        "type": "Point",
        "coordinates": [
          -144.1467513586917,
          0.007341034376604319
        ]
      }
    },
    {
      "type": "Feature",
      "properties": {
        "norad_id": 42741,
        "name": "EUTELSAT 172B",
        "group": "eutelsat",
        "lat": 0.0031389838233723388,
        "lon": 144.84599458344704,
        "alt_km": 35787.264158172016,
        "timestamp": "2025-12-09T16:56:36.251771+00:00",
        "meta_object_name": "EUTELSAT 172B",
        "meta_object_id": "2017-029B",
        "meta_epoch": "2025-12-09T12:37:00.988896",
        "meta_mean_motion": 1.00269936,
        "meta_eccentricity": 1.69e-05,
        "meta_inclination": 0.012,
        "meta_ra_of_asc_node": 91.0922,
        "meta_arg_of_pericenter": 213.9404,
        "meta_mean_anomaly": 134.7439,
        "meta_ephemeris_type": 0,
        "meta_classification_type": "U",
        "meta_norad_cat_id": 42741,
        "meta_element_set_no": 999,
        "meta_rev_at_epoch": 3182,
        "meta_bstar": 0,
        "meta_mean_motion_dot": -4e-08,
        "meta_mean_motion_ddot": 0,
        "tle_line1": "1 42741U 17029B   25343.52570589 -.00000004  00000+0  00000+0 0  9998",
        "tle_line2": "2 42741   0.0120  91.0922 0000169 213.9404 134.7439  1.00269936 31826"
      },
      "geometry": {
        "type": "Point",
        "coordinates": [
          144.84599458344704,
          0.0031389838233723388
        ]
      }
    }
  ]
}